{
  "type": "FeatureCollection",
  "features": [
    {
      "type": "Feature",
      "properties": {
        "norad_id": 34554,
        "name": "COSMOS 2251 DEB",
        "group": "cosmos-2251-debris",
        "lat": 62.81258515811846,
        "lon": -25.68726876214827,
        "alt_km": 751.831284916153,
        "timestamp": "2025-12-11T22:43:47.665191+00:00",
        "meta_object_name": "COSMOS 2251 DEB",
        "meta_object_id": "1993-036UQ",
        "meta_epoch": "2025-12-11T07:58:08.083200",
        "meta_mean_motion": 14.37934829,
        "meta_eccentricity": 0.00229305,
        "meta_inclination": 74.0386,
        "meta_ra_of_asc_node": 301.5831,
        "meta_arg_of_pericenter": 4.2606,
        "meta_mean_anomaly": 120.7229,
        "meta_ephemeris_type": 0,
        "meta_classification_type": "U",
        "meta_norad_cat_id": 34554,
        "meta_element_set_no": 999,
        "meta_rev_at_epoch": 87735,
        "meta_bstar": 0.00060457068,
        "meta_mean_motion_dot": 1.806e-05,
        "meta_mean_motion_ddot": 0,
        "tle_line1": "1 34554U 93036UQ  25345.33203800  .00001806  00000+0  60457-3 0  9999",
        "tle_line2": "2 34554  74.0386 301.5831 0022930   4.2606 120.7229 14.37934829877359"
      },
      "geometry": {
        "type": "Point",
        "coordinates": [
          -25.68726876214827,
          62.81258515811846
        ]
      }
    },
    {
      "type": "Feature",
      "properties": {
        "norad_id": 34556,
        "name": "COSMOS 2251 DEB",
        "group": "cosmos-2251-debris",
        "lat": 62.7733677418192,
        "lon": -87.44187047991446,
        "alt_km": 628.4183280222405,
        "timestamp": "2025-12-11T22:43:47.665201+00:00",
        "meta_object_name": "COSMOS 2251 DEB",
        "meta_object_id": "1993-036US",
        "meta_epoch": "2025-12-11T15:46:46.515648",
        "meta_mean_motion": 14.77747642,
        "meta_eccentricity": 0.00078788,
        "meta_inclination": 74.0159,
        "meta_ra_of_asc_node": 126.9824,
        "meta_arg_of_pericenter": 187.1045,
        "meta_mean_anomaly": 185.2844,
        "meta_ephemeris_type": 0,
        "meta_classification_type": "U",
        "meta_norad_cat_id": 34556,
        "meta_element_set_no": 999,
        "meta_rev_at_epoch": 88313,
        "meta_bstar": 0.0034463135,
        "meta_mean_motion_dot": 0.00024795,
        "meta_mean_motion_ddot": 0,
        "tle_line1": "1 34556U 93036US  25345.65748282  .00024795  00000+0  34463-2 0  9993",
        "tle_line2": "2 34556  74.0159 126.9824 0007878 187.1045 185.2844 14.77747642883133"
      },
      "geometry": {
        "type": "Point",
        "coordinates": [
          -87.44187047991446,
          62.7733677418192
        ]
      }
    },
    {
      "type": "Feature",
      "properties": {
        "norad_id": 34560,
        "name": "COSMOS 2251 DEB",
        "group": "cosmos-2251-debris",
        "lat": 21.017591641199687,
        "lon": 149.99986259433197,
        "alt_km": 663.5574200596056,
        "timestamp": "2025-12-11T22:43:47.665211+00:00",
        "meta_object_name": "COSMOS 2251 DEB",
        "meta_object_id": "1993-036UW",
        "meta_epoch": "2025-12-10T10:53:17.120832",
        "meta_mean_motion": 14.72032238,
        "meta_eccentricity": 0.00148152,
        "meta_inclination": 74.017,
        "meta_ra_of_asc_node": 146.5845,
        "meta_arg_of_pericenter": 228.0209,
        "meta_mean_anomaly": 162.9903,
        "meta_ephemeris_type": 0,
        "meta_classification_type": "U",
        "meta_norad_cat_id": 34560,
        "meta_element_set_no": 999,
        "meta_rev_at_epoch": 88218,
        "meta_bstar": 0.0034126657,
        "meta_mean_motion_dot": 0.00021514,
        "meta_mean_motion_ddot": 0,
        "tle_line1": "1 34560U 93036UW  25344.45367038  .00021514  00000+0  34127-2 0  9994",
        "tle_line2": "2 34560  74.0170 146.5845 0014815 228.0209 162.9903 14.72032238882183"
      },
      "geometry": {
        "type": "Point",
        "coordinates": [
          149.99986259433197,
          21.017591641199687
        ]
      }
    },
    {
      "type": "Feature",
      "properties": {
        "norad_id": 34563,
        "name": "COSMOS 2251 DEB",
        "group": "cosmos-2251-debris",
        "lat": -38.173406049806694,
        "lon": 38.19236137045863,
        "alt_km": 741.2541591260679,
        "timestamp": "2025-12-11T22:43:47.665221+00:00",
        "meta_object_name": "COSMOS 2251 DEB",
        "meta_object_id": "1993-036UZ",
        "meta_epoch": "2025-12-11T09:17:04.026624",
        "meta_mean_motion": 14.46504175,
        "meta_eccentricity": 0.00138862,
        "meta_inclination": 74.0376,
        "meta_ra_of_asc_node": 206.2339,
        "meta_arg_of_pericenter": 300.1234,
        "meta_mean_anomaly": 243.7896,
        "meta_ephemeris_type": 0,
        "meta_classification_type": "U",
        "meta_norad_cat_id": 34563,
        "meta_element_set_no": 999,
        "meta_rev_at_epoch": 88177,
        "meta_bstar": 0.00073390299,
        "meta_mean_motion_dot": 2.619e-05,
        "meta_mean_motion_ddot": 0,
        "tle_line1": "1 34563U 93036UZ  25345.38685216  .00002619  00000+0  73390-3 0  9992",
        "tle_line2": "2 34563  74.0376 206.2339 0013886 300.1234 243.7896 14.46504175881771"
      },
      "geometry": {
        "type": "Point",
        "coordinates": [
          38.19236137045863,
          -38.173406049806694
        ]
      }
    },
    {
      "type": "Feature",
      "properties": {
        "norad_id": 34564,
        "name": "COSMOS 2251 DEB",
        "group": "cosmos-2251-debris",
        "lat": 14.904407808401292,
        "lon": -116.15078982172932,
        "alt_km": 745.2586367035219,
        "timestamp": "2025-12-11T22:43:47.665249+00:00",
        "meta_object_name": "COSMOS 2251 DEB",
        "meta_object_id": "1993-036VA",
        "meta_epoch": "2025-12-10T23:23:53.907072",
        "meta_mean_motion": 14.40684966,
        "meta_eccentricity": 0.001896,
        "meta_inclination": 74.0326,
        "meta_ra_of_asc_node": 241.2766,
        "meta_arg_of_pericenter": 345.4873,
        "meta_mean_anomaly": 30.0328,
        "meta_ephemeris_type": 0,
        "meta_classification_type": "U",
        "meta_norad_cat_id": 34564,
        "meta_element_set_no": 999,
        "meta_rev_at_epoch": 87981,
        "meta_bstar": 0.0003776,
        "meta_mean_motion_dot": 1.182e-05,
        "meta_mean_motion_ddot": 0,
        "tle_line1": "1 34564U 93036VA  25344.97492948  .00001182  00000+0  37760-3 0  9990",
        "tle_line2": "2 34564  74.0326 241.2766 0018960 345.4873  30.0328 14.40684966879819"
      },
      "geometry": {
        "type": "Point",
        "coordinates": [
          -116.15078982172932,
          14.904407808401292
        ]
      }
    },
    {
      "type": "Feature",
      "properties": {
        "norad_id": 34567,
        "name": "COSMOS 2251 DEB",
        "group": "cosmos-2251-debris",
        "lat": 65.82007932864317,
        "lon": -61.38896765582475,
        "alt_km": 834.9244040159556,
        "timestamp": "2025-12-11T22:43:47.665262+00:00",
        "meta_object_name": "COSMOS 2251 DEB",
        "meta_object_id": "1993-036VD",
        "meta_epoch": "2025-12-11T12:23:21.941088",
        "meta_mean_motion": 14.24014723,
        "meta_eccentricity": 0.00744902,
        "meta_inclination": 74.0398,
        "meta_ra_of_asc_node": 158.9822,
        "meta_arg_of_pericenter": 233.518,
        "meta_mean_anomaly": 187.6844,
        "meta_ephemeris_type": 0,
        "meta_classification_type": "U",
        "meta_norad_cat_id": 34567,
        "meta_element_set_no": 999,
        "meta_rev_at_epoch": 87107,
        "meta_bstar": 0.00035752132,
        "meta_mean_motion_dot": 8.19e-06,
        "meta_mean_motion_ddot": 0,
        "tle_line1": "1 34567U 93036VD  25345.51622617  .00000819  00000+0  35752-3 0  9997",
        "tle_line2": "2 34567  74.0398 158.9822 0074490 233.5180 187.6844 14.24014723871078"
      },
      "geometry": {
        "type": "Point",
        "coordinates": [
          -61.38896765582475,
          65.82007932864317
        ]
      }
    },
    {
      "type": "Feature",
      "properties": {
        "norad_id": 34569,
        "name": "COSMOS 2251 DEB",
        "group": "cosmos-2251-debris",
        "lat": -73.90384355676073,
        "lon": 115.31634913658665,
        "alt_km": 865.3838233072202,
        "timestamp": "2025-12-11T22:43:47.665273+00:00",
        "meta_object_name": "COSMOS 2251 DEB",
        "meta_object_id": "1993-036VF",
        "meta_epoch": "2025-12-11T14:51:14.626656",
        "meta_mean_motion": 14.24748288,
        "meta_eccentricity": 0.01572567,
        "meta_inclination": 73.9903,
        "meta_ra_of_asc_node": 200.1629,
        "meta_arg_of_pericenter": 28.8066,
        "meta_mean_anomaly": 1.9109,
        "meta_ephemeris_type": 0,
        "meta_classification_type": "U",
        "meta_norad_cat_id": 34569,
        "meta_element_set_no": 999,
        "meta_rev_at_epoch": 86952,
        "meta_bstar": 0.00071468017,
        "meta_mean_motion_dot": 1.868e-05,
        "meta_mean_motion_ddot": 0,
        "tle_line1": "1 34569U 93036VF  25345.61891929  .00001868  00000+0  71468-3 0  9993",
        "tle_line2": "2 34569  73.9903 200.1629 0157256  28.8066   1.9109 14.24748288869524"
      },
      "geometry": {
        "type": "Point",
        "coordinates": [
          115.31634913658665,
          -73.90384355676073
        ]
      }
    }
  ]
}